[{"col1":"1 13601U 23001EAE 25071.71733177  .00030938  00000+0  12818-2 0  9996"},{"col1":"2 13601 045.0000 000.0000 0000003 082.2472 287.7271 02.19630572527269"},{"col1":"500"},{"col1":"1592.872467"},{"col1":"-2092.872467"}]
